# From MPC114605
P/2019 A6 (Lemmon-PANSTARRS),e,33.2760,280.1844,156.2020,5.357419,0.0794823,0.64005329,142.1530,07/24.0/2023,2000,g 16.0,4.0
# From MPC115884
P/2019 A8 (PANSTARRS),e,2.1821,113.8034,65.7353,4.309388,0.1101744,0.23301342,204.9440,07/24.0/2023,2000,g 16.0,4.0
# From MPC118842
C/2019 A9 (PANSTARRS),e,84.2823,278.4190,237.9157,39.13629,0.0040256,0.96344752,5.8735,07/24.0/2023,2000,g 15.0,4.0
# From MPEC 2022-L66
C/2019 B1 (Africano),e,123.4261,290.3513,174.7667,137.3309,0.0006124,0.98835917,0.0000,03/18.4606/2019,2000,g 16.0,4.0
# From MPC115885
P/2019 B2 (Groeller),e,16.9977,175.7443,0.9470,3.917297,0.1271230,0.35944533,193.2160,07/24.0/2023,2000,g 14.5,4.0
# From MPEC 2023-HD1
C/2019 B3 (PANSTARRS),e,66.5408,358.4312,263.9703,18240,0.0000004,0.99962578,0.0000,01/20.2870/2021,2000,g  9.4,4.0
# From MPEC 2021-P47
C/2019 C1 (ATLAS),e,36.0518,212.3926,319.0596,643.7611,0.0000603,0.98978668,0.0000,05/04.1928/2020,2000,g 10.0,4.0
# From MPEC 2022-O08
C/2019 D1 (Flewelling),e,34.0033,231.6551,70.7003,141.8890,0.0005832,0.98881545,0.0000,05/10.9556/2019,2000,g 13.0,4.0
# From MPEC 2023-KD6
C/2019 E3 (ATLAS),e,84.2975,347.2416,280.6910,14548,0.0000006,0.99929108,0.0000,11/15.0884/2023,2000,g  2.5,4.0
# From MPEC 2023-CD7
C/2019 F1 (ATLAS-Africano),h,06/22.8292/2021,54.2345,38.6642,251.3229,1.002612,3.604145,2000,5.5,4.0
# From MPEC 2021-P47
C/2019 F2 (ATLAS),e,19.2827,175.4333,11.6405,16.61399,0.0145544,0.86479059,20.5989,07/24.0/2023,2000,g 12.0,4.0
# From MPEC 2021-P47
A/2019 G2,e,159.2149,208.1617,82.6071,428.1179,0.0001113,0.99464060,0.0000,12/08.3166/2019,2000,g 16.5,2.0
# From MPEC 2022-VC5
A/2019 G3,e,156.8057,49.9030,161.8993,17.19811,0.0138192,0.83449433,23.3885,07/24.0/2023,2000,g 17.1,2.0
# From MPEC 2022-P82
C/2019 G4 (PANSTARRS),h,09/15.5898/2018,138.3452,130.4473,287.7440,1.001529,5.847145,2000,9.5,4.0
# From MPC114607
P/2019 GG21 (PANSTARRS),e,6.0866,340.5549,208.5998,7.468840,0.0482864,0.47181500,74.1692,07/24.0/2023,2000,g 12.0,4.0
# From MPEC 2022-M21
C/2019 H1 (NEOWISE),e,104.4393,269.2778,19.3313,245.6927,0.0002559,0.99249295,0.0000,04/27.9401/2019,2000,g 15.5,4.0
# From MPEC 2023-A50
C/2019 J1 (Lemmon),e,24.5382,98.1697,167.7291,68.17779,0.0017508,0.96354567,2.7461,07/24.0/2023,2000,g 12.0,4.0
# From MPEC 2021-R75
C/2019 J2 (Palomar),e,105.2348,25.5630,98.6781,162.0759,0.0004777,0.98938355,0.0000,07/20.5078/2019,2000,g 13.0,4.0
# From MPC117071
C/2019 J3 (ATLAS),h,08/02.4544/2019,131.3434,270.6129,16.6012,1.000599,2.370086,2000,13.5,4.0
# From MPEC 2022-M21
C/2019 JU6 (ATLAS),h,06/02.0407/2019,148.3320,21.7669,94.9861,1.000071,2.043266,2000,14.5,4.0
# From MPEC 2022-O08
C/2019 K1 (ATLAS),e,87.0457,73.3322,265.7271,8963,0.0000012,0.99977526,0.0000,02/12.5976/2020,2000,g 10.0,4.0
# From MPC119997
C/2019 K4 (Ye),e,105.2971,180.1561,139.8987,1402,0.0000188,0.99838070,0.0000,06/15.5324/2019,2000,g 12.5,4.0
# From MPEC 2021-P47
C/2019 K5 (Young),e,15.3172,177.1370,175.1531,168.7658,0.0004495,0.98789133,0.0000,06/22.9304/2019,2000,g 13.0,4.0
# From MPEC 2021-P47
C/2019 K6 (PANSTARRS),e,132.3805,42.9987,187.5738,1466,0.0000176,0.99732361,0.0000,05/19.9165/2020,2000,g 11.5,4.0
# From MPEC 2023-M14
C/2019 K7 (Smith),h,06/17.6398/2020,103.5279,307.9725,27.4071,1.000969,4.478414,2000,6.0,4.0
# From MPEC 2021-R75
C/2019 K8 (ATLAS),e,93.1292,291.0242,85.3776,2578,0.0000075,0.99876116,0.0000,07/21.7213/2019,2000,g 11.5,4.0
# From MPEC 2023-A50
C/2019 L1 (PANSTARRS),e,9.9785,254.4299,50.0563,9.839257,0.0319345,0.70523810,46.1007,07/24.0/2023,2000,g 13.5,4.0
# From MPC115886
C/2019 L2 (NEOWISE),e,152.2098,12.5490,18.8498,25.05104,0.0078608,0.93508324,12.3723,07/24.0/2023,2000,g 16.0,4.0
# From MPEC 2023-HD1
P/2019 LD2 (ATLAS),e,11.6171,179.5646,119.5459,5.214649,0.0827688,0.12660242,102.5678,07/24.0/2023,2000,g 12.0,4.0
# From MPEC 2023-O39
C/2019 L3 (ATLAS),h,01/09.6915/2022,48.3479,290.7713,171.6277,1.002192,3.554493,2000,4.5,4.0
# From MPC118095
C/2019 LB7 (Kleyna),e,164.2912,3.8918,336.5933,34.71588,0.0048185,0.92820370,7.6167,07/24.0/2023,2000,g 17.0,4.0
# From MPEC 2022-O08
P/2019 M2 (ATLAS),e,12.2695,307.6158,332.5454,3.029044,0.1869587,0.64736620,279.2047,07/24.0/2023,2000,g 21.2,4.0
# From MPC118095
C/2019 M3 (ATLAS),e,99.5248,154.9384,87.8997,5981,0.0000021,0.99959496,0.0000,12/31.7850/2018,2000,g 12.2,4.0
# From MPEC 2023-JA2
C/2019 M4 (TESS),h,09/12.3342/2019,65.6817,52.6464,260.3741,1.003630,9.188375,2000,5.0,4.0
# From MPEC 2023-C45
C/2019 N1 (ATLAS),e,82.4326,13.5713,193.4096,1491,0.0000171,0.99885633,0.0000,12/01.2131/2020,2000,g  7.5,4.0
# From MPEC 2023-CD8
A/2019 N2,e,89.3785,276.1364,347.1901,1599,0.0000154,0.99878174,0.0000,08/22.7348/2019,2000,g 12.5,2.0
# From MPEC 2022-A21
C/2019 NJ3 (Lemmon),h,10/22.9730/2020,99.4121,142.4728,246.9134,1.002550,4.362783,2000,9.0,4.0
# From MPEC 2023-N01
A/2019 O2,e,93.3098,48.2601,129.6323,58.00912,0.0022308,0.83308196,0.2408,07/24.0/2023,2000,g  9.5,2.0
# From MPEC 2023-O39
C/2019 O3 (Palomar),h,03/09.6425/2021,89.8175,300.4269,60.1317,1.004417,8.821189,2000,3.5,4.0
# From MPEC 2021-P47
A/2019 O4,e,115.0853,354.9104,61.9056,33.31630,0.0051253,0.89056756,6.4529,07/24.0/2023,2000,g 15.5,2.0
# From MPEC 2023-A50
C/2019 Q1 (Lemmon),h,07/20.8559/2020,155.7304,42.4582,56.2065,1.000953,5.003573,2000,8.5,4.0
# From MPC117072
A/2019 Q2,e,159.0274,188.0147,176.4070,57.99477,0.0022316,0.97821723,0.0000,07/22.1674/2019,2000,g 18.0,2.0
# From MPC117072
C/2019 Q3 (PANSTARRS),h,08/21.2621/2018,65.5428,151.3457,152.8003,1.002423,7.267481,2000,8.5,4.0
# From MPC117072
P/2019 S2 (PANSTARRS),e,10.4651,93.1378,217.1605,4.743331,0.0954067,0.20555093,153.9330,07/24.0/2023,2000,g 13.5,4.0
# From MPEC 2022-CN4
P/2019 S3 (PANSTARRS),e,8.6923,150.1476,213.0666,3.415337,0.1561542,0.47116165,222.7774,07/24.0/2023,2000,g 18.3,4.0
# From MPEC 2021-S45
C/2019 S4 (Lemmon),e,92.0886,63.1485,71.3786,235.6661,0.0002724,0.98539321,0.0000,04/08.1375/2020,2000,g 11.0,4.0
# From MPEC 2023-N01
A/2019 T1,e,120.8742,6.9450,91.0699,38.78423,0.0040806,0.88961669,3.7546,07/24.0/2023,2000,g 13.0,2.0
# From MPEC 2023-N01
C/2019 T2 (Lemmon),e,111.4679,155.6515,239.4317,4494,0.0000033,0.99941117,0.0000,04/22.5681/2021,2000,g  9.0,4.0
# From MPEC 2023-O39
C/2019 T3 (ATLAS),e,121.8399,139.5324,112.4539,3552,0.0000047,0.99832440,0.0000,03/04.3132/2021,2000,g  6.8,4.0
# From MPEC 2023-O39
C/2019 T4 (ATLAS),e,53.6320,199.9391,351.1621,939.7925,0.0000342,0.99548655,0.0000,06/08.8959/2022,2000,g  5.0,4.0
# From MPEC 2021-P47
P/2019 T5 (ATLAS),e,33.4960,247.6209,189.5693,7.998070,0.0435739,0.80960047,63.2701,07/24.0/2023,2000,g 15.0,4.0
# From MPEC 2021-P47
P/2019 T6 (PANSTARRS),e,18.7036,71.2150,329.0137,5.438251,0.0777169,0.62307656,105.1750,07/24.0/2023,2000,g 15.5,4.0
# From MPC118096
P/2019 U4 (PANSTARRS),e,11.7007,200.0009,181.0373,3.520091,0.1492359,0.47602665,209.4161,07/24.0/2023,2000,g 19.0,4.0
# From MPEC 2023-O39
C/2019 U5 (PANSTARRS),h,03/29.8119/2023,113.5190,2.6371,181.4893,1.001375,3.624161,2000,4.5,4.0
# From MPEC 2022-H04
C/2019 U6 (Lemmon),e,60.9739,235.7709,329.5580,334.4939,0.0001611,0.99727058,0.0000,06/18.3766/2020,2000,g 10.0,4.0
# From MPEC 2022-N37
C/2019 V1 (Borisov),e,61.9145,83.1645,51.1608,1546,0.0000162,0.99799881,0.0000,07/16.4673/2020,2000,g 11.0,4.0
# From MPEC 2022-L66
P/2019 V2 (Groeller),e,11.8082,189.1842,335.7275,7.498560,0.0479996,0.33113484,48.4696,07/24.0/2023,2000,g 10.0,4.0
# From MPEC 2023-A50
P/2019 W1 (PANSTARRS),e,23.4757,35.3767,18.7373,4.549058,0.1015832,0.26716789,156.0954,07/24.0/2023,2000,g 12.9,4.0
# From MPEC 2021-P47
P/2019 X1 (Pruyne),e,10.2505,43.6639,36.8141,6.174431,0.0642405,0.30373451,93.9648,07/24.0/2023,2000,g 10.4,4.0
# From MPC119999
C/2019 Y1 (ATLAS),e,73.3608,31.5583,57.9074,86.67498,0.0012214,0.99043964,0.0000,03/16.1258/2020,2000,g 13.7,4.0
# From MPEC 2022-YN2
C/2019 Y4 (ATLAS),e,45.1995,120.6693,177.4525,353.3693,0.0001484,0.99927735,0.0000,05/30.8335/2020,2000,g 11.8,6.0
# From MPEC 2020-L06
C/2019 Y4-A (ATLAS),h,05/30.8617/2020,45.6417,121.0311,177.2862,1.001419,0.253518,2000,11.6,6.0
# From MPEC 2023-J29
C/2019 Y4-B (ATLAS),h,05/30.8390/2020,45.3301,120.7755,177.3966,1.000020,0.254831,2000,12.1,6.0
# From MPEC 2020-L06
C/2019 Y4-C (ATLAS),h,05/30.8157/2020,45.4242,120.7577,177.3196,1.002143,0.254587,2000,12.7,6.0
# From MPEC 2020-L06
C/2019 Y4-D (ATLAS),e,45.4694,121.1312,177.4576,68.41260,0.0017418,0.99628849,0.0000,05/30.9401/2020,2000,g 12.5,6.0
# From MPEC 2023-A50
C/2019 Y5 (PANSTARRS),e,82.7662,51.7547,303.5684,747.1738,0.0000483,0.99341408,0.0000,08/17.8589/2019,2000,g 11.0,4.0
# From MPEC 2023-A50
A/2020 A1,e,149.0366,119.1950,302.4967,25.62964,0.0075961,0.93497695,10.1014,07/24.0/2023,2000,g 18.0,2.0
# From MPEC 2022-YN2
C/2020 A2 (NEOWISE),e,120.6207,286.2918,68.0825,1375,0.0000193,0.99929177,0.0000,01/08.4929/2020,2000,g 13.5,4.0
# From MPEC 2023-A50
C/2020 A3 (ATLAS),h,06/29.0439/2019,146.6654,120.8048,268.3622,1.000779,5.759535,2000,8.0,4.0
# From MPEC 2022-P91
P/2020 A4 (PANSTARRS-Lemmon),e,24.9912,312.3688,144.7740,8.194151,0.0420192,0.65405702,56.2615,07/24.0/2023,2000,g 15.0,4.0
# From MPEC 2020-N08
A/2020 B1,e,18.5210,309.9379,154.7329,51.43734,0.0026717,0.96616476,3.4881,07/24.0/2023,2000,g 21.0,2.0
# From MPEC 2022-N37
C/2020 B3 (Rankin),e,20.7095,185.8448,324.9026,939.9172,0.0000342,0.99645117,0.0000,10/19.4775/2019,2000,g 13.0,4.0
# From MPEC 2023-KD6
P/2020 B4 (Sheppard),e,11.6091,185.9788,342.0534,7.966609,0.0438323,0.19184459,26.8239,07/24.0/2023,2000,g 10.5,4.0
# From MPEC 2023-O39
C/2020 F2 (ATLAS),h,07/14.7392/2022,163.5886,250.2926,48.3229,1.005327,8.816436,2000,4.5,4.0
# From MPEC 2021-O56
C/2020 F3 (NEOWISE),e,129.1311,61.0838,37.3708,362.0501,0.0001431,0.99918308,0.0000,07/03.7753/2020,2000,g  7.5,5.2
# From MPEC 2023-O39
C/2020 F5 (MASTER),e,52.2053,350.4994,310.6810,175.7612,0.0004230,0.97539317,0.0000,03/17.4574/2021,2000,g  6.5,3.2
# From MPEC 2020-L06
C/2020 F6 (PANSTARRS),e,174.5830,207.9071,344.5364,397.1952,0.0001245,0.99117639,0.0000,04/11.6750/2020,2000,g 14.5,2.8
